STARLINK-3972           
1 52669U 22053P   26068.51458966 -.00000375  00000+0 -54717-5 0  9991
2 52669  53.2168 154.9067 0001370 100.9013 259.2133 15.08837575211011
STARLINK-6085           
1 57115U 23090Q   26068.53746065  .00027564  00000+0  15302-2 0  9997
2 57115  42.9983 264.1938 0019382 205.4773 154.5119 15.13089153150525
